STARLINK-32439          
1 61665U 24193E   26068.43908976 -.00000356  00000+0  11419-6 0  9997
2 61665  53.1591  92.4983 0001189 105.7947 254.3185 15.30197118 76486
FLOCK 4G-13             
1 62621U 25009N   26068.70638971  .00053076  00000+0  16695-2 0  9995
2 62621  97.4019 151.0918 0003801 292.7207  67.3633 15.32770015 63700
